STARLINK-1208
1 15205C 20012AD  21326.16230977  .00011209  00000-0  75091-3 0  3262
2 15205  53.0527 228.0075 0002012  65.4778  42.5031 15.06391130    11
